STARLINK-30218          
1 57604U 23119C   26034.98532790  .00000555  00000+0  56144-4 0  9994
2 57604  43.0035 264.9448 0001142 265.3485  94.7226 15.02535645138016
STARLINK-30138          
1 57605U 23119D   26035.31438786  .00000133  00000+0  24935-4 0  9998
2 57605  43.0028 263.1158 0001164 261.4642  98.6068 15.02536743138066
STARLINK-30255          
1 57606U 23119E   26035.35534048 -.00000359  00000+0 -11495-4 0  9990
2 57606  43.0029 262.5630 0001302 272.0286  88.0408 15.02534187138074
STARLINK-30252          
1 57607U 23119F   26034.92580440  .00000219  00000+0  31256-4 0  9990
2 57607  43.0026 252.6201 0000913 272.4075  87.6663 15.02537488138157
STARLINK-30258          
1 57608U 23119G   26035.03960194  .00000850  00000+0  78003-4 0  9994
2 57608  43.0028 264.4913 0001198 267.6422  92.4284 15.02537718138024
STARLINK-30174          
1 57609U 23119H   26034.96535535 -.00000567  00000+0 -26880-4 0  9996
2 57609  43.0032 264.7923 0000669 249.6446 110.4325 15.02540088138012
STARLINK-30248          
1 57610U 23119J   26034.96868658 -.00000457  00000+0 -18771-4 0  9991
2 57610  43.0027 264.8215 0000953 270.0469  90.0265 15.02532947138013
STARLINK-30052          
1 57611U 23119K   26035.02849951  .00000291  00000+0  36604-4 0  9994
2 57611  43.0036 264.4062 0001073 264.2977  95.7743 15.02534000138007
STARLINK-30245          
1 57612U 23119L   26035.49051729 -.00000551  00000+0 -25739-4 0  9992
2 57612  43.0032 261.8537 0001209 264.4926  95.5779 15.02533749138094
STARLINK-30041          
1 57613U 23119M   26035.02184379  .00000779  00000+0  72700-4 0  9990
2 57613  43.0028 264.3550 0001167 263.3032  96.7678 15.02535155138029
STARLINK-30244          
1 57614U 23119N   26035.01850962  .00000784  00000+0  73072-4 0  9997
2 57614  43.0023 264.3341 0001083 264.2324  95.8395 15.02535988138024
STARLINK-30246          
1 57615U 23119P   26035.34758002  .00002518  00000+0  20137-3 0  9996
2 57615  43.0018 262.4883 0001518 261.7019  98.3652 15.02540330138071
STARLINK-30075          
1 57616U 23119Q   26035.01196581  .00001427  00000+0  12068-3 0  9991
2 57616  43.0029 265.1467 0001213 272.6727  87.3977 15.02531513138016
STARLINK-30148          
1 57617U 23119R   26035.34102753 -.00000276  00000+0 -53194-5 0  9996
2 57617  43.0036 263.3168 0001477 264.5302  95.5372 15.02534063138062
STARLINK-30249          
1 57618U 23119S   26035.33769982  .00000230  00000+0  32084-4 0  9991
2 57618  43.0028 263.2875 0001075 271.7907  88.2813 15.02536449138062
STARLINK-30141          
1 57620U 23119U   26034.92661204 -.00000602  00000+0 -29428-4 0  9999
2 57620  43.0023 265.3666 0003194 234.9107 125.1436 15.02532271138003
