[{"OBJECT_NAME":"STARLINK-30218","OBJECT_ID":"2023-119C","EPOCH":"2026-02-03T23:38:52.330560","MEAN_MOTION":15.02535645,"ECCENTRICITY":0.00011423,"INCLINATION":43.0035,"RA_OF_ASC_NODE":264.9448,"ARG_OF_PERICENTER":265.3485,"MEAN_ANOMALY":94.7226,"EPHEMERIS_TYPE":0,"CLASSIFICATION_TYPE":"U","NORAD_CAT_ID":57604,"ELEMENT_SET_NO":999,"REV_AT_EPOCH":13801,"BSTAR":5.6143662e-5,"MEAN_MOTION_DOT":5.55e-6,"MEAN_MOTION_DDOT":0},{"OBJECT_NAME":"STARLINK-30138","OBJECT_ID":"2023-119D","EPOCH":"2026-02-04T07:32:43.111104","MEAN_MOTION":15.02536743,"ECCENTRICITY":0.0001164,"INCLINATION":43.0028,"RA_OF_ASC_NODE":263.1158,"ARG_OF_PERICENTER":261.4642,"MEAN_ANOMALY":98.6068,"EPHEMERIS_TYPE":0,"CLASSIFICATION_TYPE":"U","NORAD_CAT_ID":57605,"ELEMENT_SET_NO":999,"REV_AT_EPOCH":13806,"BSTAR":2.4935e-5,"MEAN_MOTION_DOT":1.33e-6,"MEAN_MOTION_DDOT":0},{"OBJECT_NAME":"STARLINK-30255","OBJECT_ID":"2023-119E","EPOCH":"2026-02-04T08:31:41.417472","MEAN_MOTION":15.02534187,"ECCENTRICITY":0.0001302,"INCLINATION":43.0029,"RA_OF_ASC_NODE":262.563,"ARG_OF_PERICENTER":272.0286,"MEAN_ANOMALY":88.0408,"EPHEMERIS_TYPE":0,"CLASSIFICATION_TYPE":"U","NORAD_CAT_ID":57606,"ELEMENT_SET_NO":999,"REV_AT_EPOCH":13807,"BSTAR":-1.1495e-5,"MEAN_MOTION_DOT":-3.59e-6,"MEAN_MOTION_DDOT":0},{"OBJECT_NAME":"STARLINK-30252","OBJECT_ID":"2023-119F","EPOCH":"2026-02-03T22:13:09.500160","MEAN_MOTION":15.02537488,"ECCENTRICITY":9.131e-5,"INCLINATION":43.0026,"RA_OF_ASC_NODE":252.6201,"ARG_OF_PERICENTER":272.4075,"MEAN_ANOMALY":87.6663,"EPHEMERIS_TYPE":0,"CLASSIFICATION_TYPE":"U","NORAD_CAT_ID":57607,"ELEMENT_SET_NO":999,"REV_AT_EPOCH":13815,"BSTAR":3.1255626e-5,"MEAN_MOTION_DOT":2.19e-6,"MEAN_MOTION_DDOT":0},{"OBJECT_NAME":"STARLINK-30258","OBJECT_ID":"2023-119G","EPOCH":"2026-02-04T00:57:01.607616","MEAN_MOTION":15.02537718,"ECCENTRICITY":0.00011981,"INCLINATION":43.0028,"RA_OF_ASC_NODE":264.4913,"ARG_OF_PERICENTER":267.6422,"MEAN_ANOMALY":92.4284,"EPHEMERIS_TYPE":0,"CLASSIFICATION_TYPE":"U","NORAD_CAT_ID":57608,"ELEMENT_SET_NO":999,"REV_AT_EPOCH":13802,"BSTAR":7.8002733e-5,"MEAN_MOTION_DOT":8.5e-6,"MEAN_MOTION_DDOT":0},{"OBJECT_NAME":"STARLINK-30174","OBJECT_ID":"2023-119H","EPOCH":"2026-02-03T23:10:06.702240","MEAN_MOTION":15.02540088,"ECCENTRICITY":6.695e-5,"INCLINATION":43.0032,"RA_OF_ASC_NODE":264.7923,"ARG_OF_PERICENTER":249.6446,"MEAN_ANOMALY":110.4325,"EPHEMERIS_TYPE":0,"CLASSIFICATION_TYPE":"U","NORAD_CAT_ID":57609,"ELEMENT_SET_NO":999,"REV_AT_EPOCH":13801,"BSTAR":-2.6879692e-5,"MEAN_MOTION_DOT":-5.67e-6,"MEAN_MOTION_DDOT":0},{"OBJECT_NAME":"STARLINK-30248","OBJECT_ID":"2023-119J","EPOCH":"2026-02-03T23:14:54.520512","MEAN_MOTION":15.02532947,"ECCENTRICITY":9.538e-5,"INCLINATION":43.0027,"RA_OF_ASC_NODE":264.8215,"ARG_OF_PERICENTER":270.0469,"MEAN_ANOMALY":90.0265,"EPHEMERIS_TYPE":0,"CLASSIFICATION_TYPE":"U","NORAD_CAT_ID":57610,"ELEMENT_SET_NO":999,"REV_AT_EPOCH":13801,"BSTAR":-1.8771125e-5,"MEAN_MOTION_DOT":-4.57e-6,"MEAN_MOTION_DDOT":0},{"OBJECT_NAME":"STARLINK-30052","OBJECT_ID":"2023-119K","EPOCH":"2026-02-04T00:41:02.357664","MEAN_MOTION":15.02534,"ECCENTRICITY":0.00010738,"INCLINATION":43.0036,"RA_OF_ASC_NODE":264.4062,"ARG_OF_PERICENTER":264.2977,"MEAN_ANOMALY":95.7743,"EPHEMERIS_TYPE":0,"CLASSIFICATION_TYPE":"U","NORAD_CAT_ID":57611,"ELEMENT_SET_NO":999,"REV_AT_EPOCH":13800,"BSTAR":3.6603733e-5,"MEAN_MOTION_DOT":2.91e-6,"MEAN_MOTION_DDOT":0},{"OBJECT_NAME":"STARLINK-30245","OBJECT_ID":"2023-119L","EPOCH":"2026-02-04T11:46:20.693856","MEAN_MOTION":15.02533749,"ECCENTRICITY":0.0001209,"INCLINATION":43.0032,"RA_OF_ASC_NODE":261.8537,"ARG_OF_PERICENTER":264.4926,"MEAN_ANOMALY":95.5779,"EPHEMERIS_TYPE":0,"CLASSIFICATION_TYPE":"U","NORAD_CAT_ID":57612,"ELEMENT_SET_NO":999,"REV_AT_EPOCH":13809,"BSTAR":-2.5739e-5,"MEAN_MOTION_DOT":-5.51e-6,"MEAN_MOTION_DDOT":0},{"OBJECT_NAME":"STARLINK-30041","OBJECT_ID":"2023-119M","EPOCH":"2026-02-04T00:31:27.303456","MEAN_MOTION":15.02535155,"ECCENTRICITY":0.00011671,"INCLINATION":43.0028,"RA_OF_ASC_NODE":264.355,"ARG_OF_PERICENTER":263.3032,"MEAN_ANOMALY":96.7678,"EPHEMERIS_TYPE":0,"CLASSIFICATION_TYPE":"U","NORAD_CAT_ID":57613,"ELEMENT_SET_NO":999,"REV_AT_EPOCH":13802,"BSTAR":7.2699862e-5,"MEAN_MOTION_DOT":7.79e-6,"MEAN_MOTION_DDOT":0},{"OBJECT_NAME":"STARLINK-30244","OBJECT_ID":"2023-119N","EPOCH":"2026-02-04T00:26:39.231168","MEAN_MOTION":15.02535988,"ECCENTRICITY":0.00010838,"INCLINATION":43.0023,"RA_OF_ASC_NODE":264.3341,"ARG_OF_PERICENTER":264.2324,"MEAN_ANOMALY":95.8395,"EPHEMERIS_TYPE":0,"CLASSIFICATION_TYPE":"U","NORAD_CAT_ID":57614,"ELEMENT_SET_NO":999,"REV_AT_EPOCH":13802,"BSTAR":7.3072184e-5,"MEAN_MOTION_DOT":7.84e-6,"MEAN_MOTION_DDOT":0},{"OBJECT_NAME":"STARLINK-30246","OBJECT_ID":"2023-119P","EPOCH":"2026-02-04T08:20:30.913728","MEAN_MOTION":15.0254033,"ECCENTRICITY":0.0001518,"INCLINATION":43.0018,"RA_OF_ASC_NODE":262.4883,"ARG_OF_PERICENTER":261.7019,"MEAN_ANOMALY":98.3652,"EPHEMERIS_TYPE":0,"CLASSIFICATION_TYPE":"U","NORAD_CAT_ID":57615,"ELEMENT_SET_NO":999,"REV_AT_EPOCH":13807,"BSTAR":0.00020137,"MEAN_MOTION_DOT":2.518e-5,"MEAN_MOTION_DDOT":0},{"OBJECT_NAME":"STARLINK-30075","OBJECT_ID":"2023-119Q","EPOCH":"2026-02-04T00:17:13.845984","MEAN_MOTION":15.02531513,"ECCENTRICITY":0.00012132,"INCLINATION":43.0029,"RA_OF_ASC_NODE":265.1467,"ARG_OF_PERICENTER":272.6727,"MEAN_ANOMALY":87.3977,"EPHEMERIS_TYPE":0,"CLASSIFICATION_TYPE":"U","NORAD_CAT_ID":57616,"ELEMENT_SET_NO":999,"REV_AT_EPOCH":13801,"BSTAR":0.0001206844,"MEAN_MOTION_DOT":1.427e-5,"MEAN_MOTION_DDOT":0},{"OBJECT_NAME":"STARLINK-30148","OBJECT_ID":"2023-119R","EPOCH":"2026-02-04T08:11:04.778592","MEAN_MOTION":15.02534063,"ECCENTRICITY":0.0001477,"INCLINATION":43.0036,"RA_OF_ASC_NODE":263.3168,"ARG_OF_PERICENTER":264.5302,"MEAN_ANOMALY":95.5372,"EPHEMERIS_TYPE":0,"CLASSIFICATION_TYPE":"U","NORAD_CAT_ID":57617,"ELEMENT_SET_NO":999,"REV_AT_EPOCH":13806,"BSTAR":-5.3194e-6,"MEAN_MOTION_DOT":-2.76e-6,"MEAN_MOTION_DDOT":0},{"OBJECT_NAME":"STARLINK-30249","OBJECT_ID":"2023-119S","EPOCH":"2026-02-04T08:06:17.264448","MEAN_MOTION":15.02536449,"ECCENTRICITY":0.0001075,"INCLINATION":43.0028,"RA_OF_ASC_NODE":263.2875,"ARG_OF_PERICENTER":271.7907,"MEAN_ANOMALY":88.2813,"EPHEMERIS_TYPE":0,"CLASSIFICATION_TYPE":"U","NORAD_CAT_ID":57618,"ELEMENT_SET_NO":999,"REV_AT_EPOCH":13806,"BSTAR":3.2084e-5,"MEAN_MOTION_DOT":2.3e-6,"MEAN_MOTION_DDOT":0},{"OBJECT_NAME":"STARLINK-30141","OBJECT_ID":"2023-119U","EPOCH":"2026-02-03T22:14:19.280256","MEAN_MOTION":15.02532271,"ECCENTRICITY":0.00031947,"INCLINATION":43.0023,"RA_OF_ASC_NODE":265.3666,"ARG_OF_PERICENTER":234.9107,"MEAN_ANOMALY":125.1436,"EPHEMERIS_TYPE":0,"CLASSIFICATION_TYPE":"U","NORAD_CAT_ID":57620,"ELEMENT_SET_NO":999,"REV_AT_EPOCH":13800,"BSTAR":-2.9427758e-5,"MEAN_MOTION_DOT":-6.02e-6,"MEAN_MOTION_DDOT":0}]
